OBJECT_NAME,OBJECT_ID,EPOCH,MEAN_MOTION,ECCENTRICITY,INCLINATION,RA_OF_ASC_NODE,ARG_OF_PERICENTER,MEAN_ANOMALY,EPHEMERIS_TYPE,CLASSIFICATION_TYPE,NORAD_CAT_ID,ELEMENT_SET_NO,REV_AT_EPOCH,BSTAR,MEAN_MOTION_DOT,MEAN_MOTION_DDOT
GAOFEN-11 01,2018-063A,2026-07-20T14:52:22.988928,15.56177571,.00038069,97.1266,268.4223,179.0893,181.0370,0,U,43585,999,44554,.20262981E-3,.14094E-3,0
ICESAT-2,2018-070A,2026-07-20T13:11:36.360096,15.28231022,.00050045,92.0086,299.9954,46.7276,313.4390,0,U,43613,999,43755,.19778121E-3,.5441E-4,0
HYSIS,2018-096A,2026-07-20T13:45:00.384768,14.78677139,.00017762,97.9820,268.0567,83.0223,277.1190,0,U,43719,999,41235,.10230691E-3,.698E-5,0
KAZSTSAT,2018-099AB,2026-07-20T01:16:37.363008,14.99958351,.00071903,97.4309,231.5017,320.5226,39.5473,0,U,43783,999,41623,.6151122E-5,.21E-6,0
SAUDISAT 5A,2018-102A,2026-07-20T14:58:43.485024,15.28353010,.00099064,97.3045,262.5639,26.2034,333.9705,0,U,43831,999,42078,.1147822E-3,.3099E-4,0
SAUDISAT 5B,2018-102C,2026-07-20T15:18:01.999296,15.28594459,.00106763,97.3155,265.7074,27.5066,332.6737,0,U,43833,999,42090,.10921276E-3,.2968E-4,0
GAOFEN-10R,2019-066A,2026-07-20T14:51:08.745408,14.83063947,.00065803,98.0512,155.4444,38.3757,321.7923,0,U,44622,999,36733,.77437065E-4,.575E-5,0
CARTOSAT-3,2019-081A,2026-07-20T14:47:12.934752,15.19206243,.00125905,97.4282,262.9415,41.9899,318.2298,0,U,44804,999,36854,.98699227E-4,.2013E-4,0
GAOFEN-12 01,2019-082A,2026-07-20T14:28:21.493920,14.80481916,.00007201,97.8112,207.1022,65.1228,295.0060,0,U,44819,999,35903,.29603227E-4,.176E-5,0
CSG-1,2019-092A,2026-07-20T14:29:53.532384,14.82159264,.00014618,97.8899,24.7244,94.8966,265.2414,0,U,44873,999,35642,.27022636E-4,.163E-5,0
NEMO-HD,2020-061F,2026-07-20T14:47:17.950272,15.45209521,.00010325,97.1896,263.2424,112.2201,247.9158,0,U,46277,999,32714,.15321787E-3,.7187E-4,0
SENTINEL-6A,2020-086A,2026-07-20T08:17:59.743104,12.80930231,.00077844,66.0411,66.1822,269.6503,90.3620,0,U,46984,999,26457,-.8420982E-5,-.63E-6,0
CAS500-1,2021-022A,2026-07-20T15:12:25.869600,15.20165978,.00057413,97.3853,96.2024,153.7174,206.4354,0,U,47932,999,29584,.15944725E-3,.3384E-4,0
GAOFEN-12 02,2021-026A,2026-07-20T14:49:28.072992,14.80318408,.00061079,97.9939,199.6645,118.1946,241.9883,0,U,48079,999,28670,.29688461E-4,.173E-5,0
PLEIADES NEO 3,2021-034A,2026-07-19T07:56:44.636352,14.81672056,.00013939,97.8937,274.6355,96.6622,263.4750,0,U,48268,999,28241,.26537661E-4,.157E-5,0
PLEIADES NEO 4,2021-073E,2026-07-20T13:55:47.416224,14.81675743,.00013904,97.8936,275.8631,96.0029,264.1342,0,U,49070,999,26631,.14424935E-3,.1083E-4,0
LANDSAT 9,2021-088A,2026-07-20T10:23:13.180416,14.57097708,.00010828,98.2265,271.2051,92.1239,268.0083,0,U,49260,999,25584,.46150316E-4,.162E-5,0
CSG-2,2022-008A,2026-07-19T08:31:21.408096,14.82176378,.00016613,97.8896,23.4868,89.8481,270.2922,0,U,51444,999,24135,.45603774E-4,.311E-5,0
GAOFEN-12 03,2022-069A,2026-07-20T14:03:22.516992,14.80081265,.00023411,97.8230,88.6069,67.9980,292.1480,0,U,52912,999,21955,.9387814E-4,.661E-5,0
SWOT,2022-173A,2026-07-20T13:43:17.354496,14.00172578,.00002293,77.6117,350.2397,67.5102,292.6074,0,U,54754,999,18382,.1305677E-4,.17E-6,0
GAOFEN-12 04,2023-123A,2026-07-20T14:33:18.268416,14.79781177,.00032274,97.9096,119.1232,38.7040,321.4403,0,U,57654,999,15757,.74011868E-4,.505E-5,0
PARS 1,2024-039Q,2026-07-20T15:31:01.363584,15.46363011,.00090827,97.4847,183.6409,8.3507,351.7892,0,U,59065,999,13381,.15625561E-3,.7633E-4,0
RESURS-P 4,2024-061A,2026-07-20T15:14:26.920320,15.32299462,.00032023,97.2761,148.9575,81.4578,278.7027,0,U,59371,999,12888,.5982371E-4,.179E-4,0
LEGION 1,2024-081A,2026-07-20T13:01:10.543296,15.16864206,.00078417,97.5008,279.0459,247.4025,112.6379,0,U,59625,999,12259,.99414262E-4,.189E-4,0
LEGION 2,2024-081B,2026-07-20T13:45:02.498976,15.16844204,.00106408,97.5007,279.1727,213.1382,146.9185,0,U,59626,999,12260,.10270359E-3,.1955E-4,0
ALOS-4 (DAICHI-4),2024-123A,2026-07-19T19:48:16.268256,14.79476713,.00015429,97.9221,297.5326,98.1551,261.9835,0,U,60182,999,11070,.89648823E-4,.618E-5,0
LEGION 3,2024-146A,2026-07-20T09:52:38.205120,15.15672199,.00076936,45.0013,212.4280,2.7396,357.3524,0,U,60452,999,10706,.82207696E-4,.1327E-4,0
LEGION 4,2024-146B,2026-07-20T11:27:01.374336,15.15702766,.0009312,45.0022,303.9439,146.2803,213.8670,0,U,60453,999,10592,.12774494E-3,.2212E-4,0
SENTINEL-2C,2024-157A,2026-07-20T04:18:33.751584,14.30816557,.00010283,98.5681,275.4927,106.0889,254.0407,0,U,60989,999,9770,.32384356E-4,.41E-6,0
IONOSFERA-M 1,2024-199A,2026-07-20T14:21:53.691840,14.22759817,.00020753,98.7128,74.4111,64.9338,295.2055,0,U,61735,999,13245,.2227348E-4,.6E-7,0
