GAOFEN-11 01            
1 43585U 18063A   26201.61971052  .00014094  00000+0  20263-3 0  9998
2 43585  97.1266 268.4223 0003806 179.0893 181.0370 15.56177571445546
ICESAT-2                
1 43613U 18070A   26201.54972639  .00005441  00000+0  19778-3 0  9997
2 43613  92.0086 299.9954 0005004  46.7276 313.4390 15.28231022437555
HYSIS                   
1 43719U 18096A   26201.57292112  .00000698  00000+0  10231-3 0  9990
2 43719  97.9820 268.0567 0001776  83.0223 277.1190 14.78677139412359
KAZSTSAT                
1 43783U 18099AB  26201.05321022  .00000021  00000+0  61511-5 0  9999
2 43783  97.4309 231.5017 0007190 320.5226  39.5473 14.99958351416236
SAUDISAT 5A             
1 43831U 18102A   26201.62411441  .00003099  00000+0  11478-3 0  9999
2 43831  97.3045 262.5639 0009906  26.2034 333.9705 15.28353010420782
SAUDISAT 5B             
1 43833U 18102C   26201.63752314  .00002968  00000+0  10921-3 0  9995
2 43833  97.3155 265.7074 0010676  27.5066 332.6737 15.28594459420908
GAOFEN-10R              
1 44622U 19066A   26201.61885122  .00000575  00000+0  77437-4 0  9992
2 44622  98.0512 155.4444 0006580  38.3757 321.7923 14.83063947367338
CARTOSAT-3              
1 44804U 19081A   26201.61612193  .00002013  00000+0  98699-4 0  9999
2 44804  97.4282 262.9415 0012590  41.9899 318.2298 15.19206243368542
GAOFEN-12 01            
1 44819U 19082A   26201.60302655  .00000176  00000+0  29603-4 0  9991
2 44819  97.8112 207.1022 0000720  65.1228 295.0060 14.80481916359037
CSG-1                   
1 44873U 19092A   26201.60409181  .00000163  00000+0  27023-4 0  9994
2 44873  97.8899  24.7244 0001461  94.8966 265.2414 14.82159264356421
NEMO-HD                 
1 46277U 20061F   26201.61617998  .00007187  00000+0  15322-3 0  9991
2 46277  97.1896 263.2424 0001032 112.2201 247.9158 15.45209521327143
SENTINEL-6A             
1 46984U 20086A   26201.34583036 -.00000063  00000+0 -84210-5 0  9990
2 46984  66.0411  66.1822 0007784 269.6503  90.3620 12.80930231264576
CAS500-1                
1 47932U 21022A   26201.63363275  .00003384  00000+0  15945-3 0  9992
2 47932  97.3853  96.2024 0005741 153.7174 206.4354 15.20165978295846
GAOFEN-12 02            
1 48079U 21026A   26201.61768603  .00000173  00000+0  29688-4 0  9994
2 48079  97.9939 199.6645 0006107 118.1946 241.9883 14.80318408286705
PLEIADES NEO 3          
1 48268U 21034A   26200.33107218  .00000157  00000+0  26538-4 0  9993
2 48268  97.8937 274.6355 0001393  96.6622 263.4750 14.81672056282416
PLEIADES NEO 4          
1 49070U 21073E   26201.58040991  .00001083  00000+0  14425-3 0  9990
2 49070  97.8936 275.8631 0001390  96.0029 264.1342 14.81675743266311
LANDSAT 9               
1 49260U 21088A   26201.43279144  .00000162  00000+0  46150-4 0  9993
2 49260  98.2265 271.2051 0001082  92.1239 268.0083 14.57097708255849
CSG-2                   
1 51444U 22008A   26200.35510889  .00000311  00000+0  45604-4 0  9996
2 51444  97.8896  23.4868 0001661  89.8481 270.2922 14.82176378241356
GAOFEN-12 03            
1 52912U 22069A   26201.58567728  .00000661  00000+0  93878-4 0  9998
2 52912  97.8230  88.6069 0002341  67.9980 292.1480 14.80081265219559
SWOT                    
1 54754U 22173A   26201.57172864  .00000017  00000+0  13057-4 0  9998
2 54754  77.6117 350.2397 0000229  67.5102 292.6074 14.00172578183826
GAOFEN-12 04            
1 57654U 23123A   26201.60646144  .00000505  00000+0  74012-4 0  9997
2 57654  97.9096 119.1232 0003227  38.7040 321.4403 14.79781177157578
PARS 1                  
1 59065U 24039Q   26201.64654356  .00007633  00000+0  15626-3 0  9994
2 59065  97.4847 183.6409 0009082   8.3507 351.7892 15.46363011133810
RESURS-P 4              
1 59371U 24061A   26201.63503380  .00001790  00000+0  59824-4 0  9995
2 59371  97.2761 148.9575 0003202  81.4578 278.7027 15.32299462128881
LEGION 1                
1 59625U 24081A   26201.54248314  .00001890  00000+0  99414-4 0  9992
2 59625  97.5008 279.0459 0007841 247.4025 112.6379 15.16864206122595
LEGION 2                
1 59626U 24081B   26201.57294559  .00001955  00000+0  10270-3 0  9992
2 59626  97.5007 279.1727 0010640 213.1382 146.9185 15.16844204122604
ALOS-4 (DAICHI-4)       
1 60182U 24123A   26200.82518829  .00000618  00000+0  89649-4 0  9996
2 60182  97.9221 297.5326 0001542  98.1551 261.9835 14.79476713110706
LEGION 3                
1 60452U 24146A   26201.41155330  .00001327  00000+0  82208-4 0  9993
2 60452  45.0013 212.4280 0007693   2.7396 357.3524 15.15672199107062
LEGION 4                
1 60453U 24146B   26201.47709924  .00002212  00000+0  12774-3 0  9998
2 60453  45.0022 303.9439 0009312 146.2803 213.8670 15.15702766105927
SENTINEL-2C             
1 60989U 24157A   26201.17955731  .00000041  00000+0  32384-4 0  9998
2 60989  98.5681 275.4927 0001028 106.0889 254.0407 14.30816557 97705
IONOSFERA-M 1           
1 61735U 24199A   26201.59853810  .00000006  00000+0  22273-4 0  9992
2 61735  98.7128  74.4111 0002075  64.9338 295.2055 14.22759817132453
